NORAD_CAT_ID,OBJECT_NAME,OBJECT_TYPE,EPOCH,MEAN_MOTION,ECCENTRICITY,INCLINATION,RA_OF_ASC_NODE,ARG_OF_PERICENTER,MEAN_ANOMALY,BSTAR,MEAN_MOTION_DOT,MEAN_MOTION_DDOT,TLE_LINE0,TLE_LINE1,TLE_LINE2,SEMIMAJOR_AXIS,PERIOD,APOGEE,PERIGEE,DECAYED
52342.0,STARLINK-3850,PAYLOAD,2024-05-03 08:12:25,15.08848708,0.0002248,53.2182,350.9909,74.7915,285.3326,0.00010341,1.358e-05,0.0,0 STARLINK-3850,1 52342U 22045M   24124.34196514  .00001358  00000-0  10341-3 0  9994,2 52342  53.2182 350.9909 0002248  74.7915 285.3326 15.08848708113826,6917.854,95.437,541.274,538.164,0.0
52342.0,STARLINK-3850,PAYLOAD,2024-05-03 20:55:33,15.08816622,0.0001785,53.2189,348.6124,79.0349,281.0844,-5.7094e-05,-1.196e-05,0.0,0 STARLINK-3850,1 52342U 22045M   24124.87191095 -.00001196  00000-0 -57094-4 0  9990,2 52342  53.2189 348.6124 0001785  79.0349 281.0844 15.08816622113907,6917.952,95.439,541.052,538.582,0.0
52342.0,STARLINK-3850,PAYLOAD,2024-05-03 22:30:56,15.08817332,0.0001639,53.2159,348.3142,80.7304,279.3873,-5.675e-05,-1.19e-05,0.0,0 STARLINK-3850,1 52342U 22045M   24124.93815050 -.00001190  00000-0 -56750-4 0  9993,2 52342  53.2159 348.3142 0001639  80.7304 279.3873 15.08817332113911,6917.95,95.439,540.949,538.681,0.0
52342.0,STARLINK-3850,PAYLOAD,2024-05-04 08:03:14,15.08825638,0.0001673,53.2159,346.5317,87.05,273.0684,1.099e-05,-1.13e-06,0.0,0 STARLINK-3850,1 52342U 22045M   24125.33558805 -.00000113  00000-0  10990-4 0  9999,2 52342  53.2159 346.5317 0001673  87.0500 273.0684 15.08825638113976,6917.924,95.438,540.947,538.632,0.0
52342.0,STARLINK-3850,PAYLOAD,2024-05-04 20:46:19,15.0885337,0.0001443,53.2172,344.153,91.8205,268.2952,-0.00013824,-2.488e-05,0.0,0 STARLINK-3850,1 52342U 22045M   24125.86549781 -.00002488  00000-0 -13824-3 0  9996,2 52342  53.2172 344.1530 0001443  91.8205 268.2952 15.08853370114050,6917.84,95.437,540.703,538.706,0.0
52342.0,STARLINK-3850,PAYLOAD,2024-05-05 14:15:34,15.08842621,0.0001574,53.2169,340.8817,77.6934,282.4235,0.00058479,9.032e-05,0.0,0 STARLINK-3850,1 52342U 22045M   24126.59414421  .00009032  00000-0  58479-3 0  9994,2 52342  53.2169 340.8817 0001574  77.6934 282.4235 15.08842621114164,6917.872,95.437,540.826,538.649,0.0
52342.0,STARLINK-3850,PAYLOAD,2024-05-05 20:37:06,15.08859533,0.0001499,53.216,339.6928,76.2726,283.8433,0.00075835,0.00011808,0.0,0 STARLINK-3850,1 52342U 22045M   24126.85909956  .00011808  00000-0  75835-3 0  9994,2 52342  53.2160 339.6928 0001499  76.2726 283.8433 15.08859533114204,6917.821,95.436,540.723,538.649,0.0
52342.0,STARLINK-3850,PAYLOAD,2024-05-05 23:47:52,15.08869259,0.0001523,53.2161,339.0974,76.746,283.3702,0.00094527,0.000148,0.0,0 STARLINK-3850,1 52342U 22045M   24126.99157640  .00014800  00000-0  94527-3 0  9998,2 52342  53.2161 339.0974 0001523  76.7460 283.3702 15.08869259114220,6917.791,95.436,540.71,538.602,0.0
52342.0,STARLINK-3850,PAYLOAD,2024-05-06 07:44:47,15.08865596,0.0001984,53.216,337.6114,77.0304,283.0909,0.00072386,0.00011259,0.0,0 STARLINK-3850,1 52342U 22045M   24127.32277685  .00011259  00000-0  72386-3 0  9992,2 52342  53.2160 337.6114 0001984  77.0304 283.0909 15.08865596114272,6917.802,95.436,541.04,538.295,0.0
52342.0,STARLINK-3850,PAYLOAD,2024-05-06 20:27:52,15.08858019,0.0001671,53.2161,335.2327,86.9425,273.1758,0.00041809,6.375e-05,0.0,0 STARLINK-3850,1 52342U 22045M   24127.85269165  .00006375  00000-0  41809-3 0  9993,2 52342  53.2161 335.2327 0001671  86.9425 273.1758 15.08858019114352,6917.825,95.436,540.846,538.534,0.0
52342.0,STARLINK-3850,PAYLOAD,2024-05-07 13:57:07,15.08838631,0.0001475,53.2178,331.9602,79.9033,280.2125,1.9794e-05,2.7e-07,0.0,0 STARLINK-3850,1 52342U 22045M   24128.58133590  .00000027  00000-0  19794-4 0  9993,2 52342  53.2178 331.9602 0001475  79.9033 280.2125 15.08838631114465,6917.885,95.438,540.77,538.729,0.0
52342.0,STARLINK-3850,PAYLOAD,2024-05-07 18:43:16,15.08833156,0.0001322,53.2154,331.069,77.9488,282.1652,-5.0067e-05,-1.084e-05,0.0,0 STARLINK-3850,1 52342U 22045M   24128.78005762 -.00001084  00000-0 -50067-4 0  9998,2 52342  53.2154 331.0690 0001322  77.9488 282.1652 15.08833156114496,6917.901,95.438,540.681,538.852,0.0
52342.0,STARLINK-3850,PAYLOAD,2024-05-08 13:47:54,15.08838728,0.0001459,53.2167,327.4996,96.5745,263.5413,0.00021691,3.166e-05,0.0,0 STARLINK-3850,1 52342U 22045M   24129.57494072  .00003166  00000-0  21691-3 0  9993,2 52342  53.2167 327.4996 0001459  96.5745 263.5413 15.08838728114614,6917.884,95.438,540.759,538.74,0.0
52342.0,STARLINK-3850,PAYLOAD,2024-05-08 20:09:27,15.08845393,0.0001465,53.2176,326.3111,97.6842,262.4317,0.00037029,5.611e-05,0.0,0 STARLINK-3850,1 52342U 22045M   24129.83989951  .00005611  00000-0  37029-3 0  9996,2 52342  53.2176 326.3111 0001465  97.6842 262.4317 15.08845393114659,6917.864,95.437,540.742,538.715,0.0
52342.0,STARLINK-3850,PAYLOAD,2024-05-09 05:41:46,15.08847055,0.0001445,53.2175,324.5278,93.6605,266.4552,0.00045529,6.967e-05,0.0,0 STARLINK-3850,1 52342U 22045M   24130.23734017  .00006967  00000-0  45529-3 0  9992,2 52342  53.2175 324.5278 0001445  93.6605 266.4552 15.08847055114712,6917.859,95.437,540.723,538.724,0.0
52342.0,STARLINK-3850,PAYLOAD,2024-05-09 20:00:13,15.0888676,0.0001168,53.2172,321.8517,101.1653,258.947,0.0013797,0.00021766,0.0,0 STARLINK-3850,1 52342U 22045M   24130.83348711  .00021766  00000-0  13797-2 0  9995,2 52342  53.2172 321.8517 0001168 101.1653 258.9470 15.08886760114806,6917.737,95.435,540.41,538.794,0.0
52342.0,STARLINK-3850,PAYLOAD,2024-05-10 05:32:32,15.08845386,0.0001251,53.2176,320.0666,108.8336,251.2792,-0.00014708,-2.628e-05,0.0,0 STARLINK-3850,1 52342U 22045M   24131.23092966 -.00002628  00000-0 -14708-3 0  9990,2 52342  53.2176 320.0666 0001251 108.8336 251.2792 15.08845386114869,6917.864,95.437,540.594,538.864,0.0
52342.0,STARLINK-3850,PAYLOAD,2024-05-10 21:26:24,15.08843085,0.0001192,53.2174,317.0894,92.3269,267.786,0.00015473,2.176e-05,0.0,0 STARLINK-3850,1 52342U 22045M   24131.89333355  .00002176  00000-0  15473-3 0  9998,2 52342  53.2174 317.0894 0001192  92.3269 267.7860 15.08843085114965,6917.871,95.437,540.561,538.911,0.0
52342.0,STARLINK-3850,PAYLOAD,2024-05-11 11:44:50,15.08913975,9.31e-05,53.2165,314.4118,127.6907,232.417,0.0022751,0.0003618,0.0,0 STARLINK-3850,1 52342U 22045M   24132.48947089  .00036180  00000-0  22751-2 0  9997,2 52342  53.2165 314.4118 0000931 127.6907 232.4170 15.08913975115056,6917.654,95.433,540.163,538.875,0.0
52342.0,STARLINK-3850,PAYLOAD,2024-05-11 19:41:47,15.08798986,0.0001365,53.2166,312.9265,93.3376,266.7772,-0.0021432,-0.00034197,0.0,0 STARLINK-3850,1 52342U 22045M   24132.82068898 -.00034197  00000-0 -21432-2 0  9990,2 52342  53.2166 312.9265 0001365  93.3376 266.7772 15.08798986115101,6918.006,95.44,540.815,538.926,0.0
52342.0,STARLINK-3850,PAYLOAD,2024-05-12 05:14:09,15.08719516,0.0001875,53.2167,311.1438,79.5913,280.529,-0.0034848,-0.00055144,0.0,0 STARLINK-3850,1 52342U 22045M   24133.21816663 -.00055144  00000-0 -34848-2 0  9995,2 52342  53.2167 311.1438 0001875  79.5913 280.5290 15.08719516115161,6918.249,95.445,541.411,538.817,0.0
52342.0,STARLINK-3850,PAYLOAD,2024-05-12 11:35:43,15.08711648,0.0001399,53.2176,309.9585,61.2907,298.8226,-0.0028799,-0.00045671,0.0,0 STARLINK-3850,1 52342U 22045M   24133.48314754 -.00045671  00000-0 -28799-2 0  9990,2 52342  53.2176 309.9585 0001399  61.2907 298.8226 15.08711648115205,6918.273,95.446,541.106,539.17,0.0
52342.0,STARLINK-3850,PAYLOAD,2024-05-12 17:57:17,15.08766736,0.0001318,53.2173,308.7662,107.4305,252.6832,0.001154,0.00018089,0.0,0 STARLINK-3850,1 52342U 22045M   24133.74811426  .00018089  00000-0  11540-2 0  9994,2 52342  53.2173 308.7662 0001318 107.4305 252.6832 15.08766736115244,6918.104,95.442,540.881,539.058,0.0
52342.0,STARLINK-3850,PAYLOAD,2024-05-13 05:05:00,15.08824171,0.0001615,53.217,306.6838,108.3064,251.8104,0.0020819,0.00032987,0.0,0 STARLINK-3850,1 52342U 22045M   24134.21181040  .00032987  00000-0  20819-2 0  9991,2 52342  53.2170 306.6838 0001615 108.3064 251.8104 15.08824171115314,6917.929,95.439,540.911,538.677,0.0
52342.0,STARLINK-3850,PAYLOAD,2024-05-13 17:48:04,15.0888252,0.0001343,53.2152,304.3054,105.8648,254.2493,0.0022957,0.0003648,0.0,0 STARLINK-3850,1 52342U 22045M   24134.74171912  .00036480  00000-0  22957-2 0  9993,2 52342  53.2152 304.3054 0001343 105.8648 254.2493 15.08882520115395,6917.75,95.435,540.544,538.686,0.0
52342.0,STARLINK-3850,PAYLOAD,2024-05-14 17:38:48,15.08928795,6.99e-05,53.2171,299.845,114.5935,245.513,0.0019013,0.00030175,0.0,0 STARLINK-3850,1 52342U 22045M   24135.73527888  .00030175  00000-0  19013-2 0  9994,2 52342  53.2171 299.8450 0000699 114.5935 245.5130 15.08928795115546,6917.609,95.432,539.958,538.99,0.0
52342.0,STARLINK-3850,PAYLOAD,2024-05-15 11:08:01,15.08878255,5.76e-05,53.2181,296.5719,72.4566,287.6489,0.001592,0.00025166,0.0,0 STARLINK-3850,1 52342U 22045M   24136.46390858  .00025166  00000-0  15920-2 0  9997,2 52342  53.2181 296.5719 0000576  72.4566 287.6489 15.08878255115656,6917.763,95.435,540.027,539.23,0.0
52342.0,STARLINK-3850,PAYLOAD,2024-05-15 14:18:47,15.0885124,0.0001303,53.2152,295.9785,81.5762,278.5378,0.00070997,0.00011033,0.0,0 STARLINK-3850,1 52342U 22045M   24136.59638844  .00011033  00000-0  70997-3 0  9995,2 52342  53.2152 295.9785 0001303  81.5762 278.5378 15.08851240115671,6917.846,95.437,540.612,538.81,0.0
52342.0,STARLINK-3850,PAYLOAD,2024-05-15 15:54:10,15.08865223,0.0001347,53.2179,295.6816,87.0846,273.03,-7.1216e-05,-1.422e-05,0.0,0 STARLINK-3850,1 52342U 22045M   24136.66262509 -.00001422  00000-0 -71216-4 0  9993,2 52342  53.2179 295.6816 0001347  87.0846 273.0300 15.08865223115686,6917.803,95.436,540.6,538.736,0.0
52342.0,STARLINK-3850,PAYLOAD,2024-05-16 10:58:48,15.08859537,0.0001629,53.2215,292.1154,89.0632,271.0547,0.00066028,0.00010242,0.0,0 STARLINK-3850,1 52342U 22045M   24137.45750655  .00010242  00000-0  66028-3 0  9997,2 52342  53.2215 292.1154 0001629  89.0632 271.0547 15.08859537115808,6917.821,95.436,540.813,538.559,0.0
